{"type": "FeatureCollection", "features": [{"type": "Feature", "properties": {"norad_id": 24876, "name": "GPS BIIR-2  (PRN 13)", "group": "gnss", "lat": 54.5406272248481, "lon": 178.1878431224311, "alt_km": 19938.98802481295, "timestamp": "2025-12-03T20:47:58.464094+00:00", "meta": {"OBJECT_NAME": "GPS BIIR-2  (PRN 13)", "OBJECT_ID": "1997-035A", "EPOCH": "2025-12-02T18:15:55.287648", "MEAN_MOTION": 2.00563455, "ECCENTRICITY": 0.0096675, "INCLINATION": 55.8903, "RA_OF_ASC_NODE": 106.2592, "ARG_OF_PERICENTER": 57.0161, "MEAN_ANOMALY": 303.8791, "EPHEMERIS_TYPE": 0, "CLASSIFICATION_TYPE": "U", "NORAD_CAT_ID": 24876, "ELEMENT_SET_NO": 999, "REV_AT_EPOCH": 20801, "BSTAR": 0, "MEAN_MOTION_DOT": 2.2e-07, "MEAN_MOTION_DDOT": 0}, "tle": {"line1": "1 24876U 97035A   25336.76105657  .00000022  00000+0  00000+0 0  9999", "line2": "2 24876  55.8903 106.2592 0096675  57.0161 303.8791  2.00563455208019"}}, "geometry": {"type": "Point", "coordinates": [178.1878431224311, 54.5406272248481]}}, {"type": "Feature", "properties": {"norad_id": 26360, "name": "GPS BIIR-4  (PRN 20)", "group": "gnss", "lat": 7.717584862863366, "lon": -158.21968569499901, "alt_km": 20146.191375451508, "timestamp": "2025-12-03T20:47:58.464144+00:00", "meta": {"OBJECT_NAME": "GPS BIIR-4  (PRN 20)", "OBJECT_ID": "2000-025A", "EPOCH": "2025-12-03T06:10:25.332960", "MEAN_MOTION": 2.00568333, "ECCENTRICITY": 0.0038792, "INCLINATION": 55.0396, "RA_OF_ASC_NODE": 27.2216, "ARG_OF_PERICENTER": 241.061, "MEAN_ANOMALY": 209.8997, "EPHEMERIS_TYPE": 0, "CLASSIFICATION_TYPE": "U", "NORAD_CAT_ID": 26360, "ELEMENT_SET_NO": 999, "REV_AT_EPOCH": 18734, "BSTAR": 0, "MEAN_MOTION_DOT": -7e-07, "MEAN_MOTION_DDOT": 0}, "tle": {"line1": "1 26360U 00025A   25337.25723765 -.00000070  00000+0  00000+0 0  9997", "line2": "2 26360  55.0396  27.2216 0038792 241.0610 209.8997  2.00568333187347"}}, "geometry": {"type": "Point", "coordinates": [-158.21968569499901, 7.717584862863366]}}, {"type": "Feature", "properties": {"norad_id": 26407, "name": "GPS BIIR-5  (PRN 22)", "group": "gnss", "lat": 9.664732781718778, "lon": -130.20099204554782, "alt_km": 20063.137485810843, "timestamp": "2025-12-03T20:47:58.464163+00:00", "meta": {"OBJECT_NAME": "GPS BIIR-5  (PRN 22)", "OBJECT_ID": "2000-040A", "EPOCH": "2025-12-02T20:35:05.714592", "MEAN_MOTION": 2.00567701, "ECCENTRICITY": 0.01265555, "INCLINATION": 54.8933, "RA_OF_ASC_NODE": 222.9621, "ARG_OF_PERICENTER": 301.6247, "MEAN_ANOMALY": 60.4206, "EPHEMERIS_TYPE": 0, "CLASSIFICATION_TYPE": "U", "NORAD_CAT_ID": 26407, "ELEMENT_SET_NO": 999, "REV_AT_EPOCH": 18601, "BSTAR": 0, "MEAN_MOTION_DOT": 5.8e-07, "MEAN_MOTION_DDOT": 0}, "tle": {"line1": "1 26407U 00040A   25336.85770503  .00000058  00000+0  00000+0 0  9998", "line2": "2 26407  54.8933 222.9621 0126555 301.6247  60.4206  2.00567701186016"}}, "geometry": {"type": "Point", "coordinates": [-130.20099204554782, 9.664732781718778]}}, {"type": "Feature", "properties": {"norad_id": 27663, "name": "GPS BIIR-8  (PRN 16)", "group": "gnss", "lat": 25.71478530004934, "lon": 22.983104057318076, "alt_km": 20215.74473043994, "timestamp": "2025-12-03T20:47:58.464179+00:00", "meta": {"OBJECT_NAME": "GPS BIIR-8  (PRN 16)", "OBJECT_ID": "2003-005A", "EPOCH": "2025-12-02T07:21:58.833216", "MEAN_MOTION": 2.00571367, "ECCENTRICITY": 0.014703, "INCLINATION": 54.9261, "RA_OF_ASC_NODE": 222.7933, "ARG_OF_PERICENTER": 51.6544, "MEAN_ANOMALY": 48.4553, "EPHEMERIS_TYPE": 0, "CLASSIFICATION_TYPE": "U", "NORAD_CAT_ID": 27663, "ELEMENT_SET_NO": 999, "REV_AT_EPOCH": 16736, "BSTAR": 0, "MEAN_MOTION_DOT": 5.5e-07, "MEAN_MOTION_DDOT": 0}, "tle": {"line1": "1 27663U 03005A   25336.30693094  .00000055  00000+0  00000+0 0  9993", "line2": "2 27663  54.9261 222.7933 0147030  51.6544  48.4553  2.00571367167364"}}, "geometry": {"type": "Point", "coordinates": [22.983104057318076, 25.71478530004934]}}, {"type": "Feature", "properties": {"norad_id": 28190, "name": "GPS BIIR-11 (PRN 19)", "group": "gnss", "lat": -41.339603357424956, "lon": -114.45946829882452, "alt_km": 20402.60086843592, "timestamp": "2025-12-03T20:47:58.464192+00:00", "meta": {"OBJECT_NAME": "GPS BIIR-11 (PRN 19)", "OBJECT_ID": "2004-009A", "EPOCH": "2025-12-03T10:35:53.865888", "MEAN_MOTION": 2.00560969, "ECCENTRICITY": 0.0108207, "INCLINATION": 54.9946, "RA_OF_ASC_NODE": 283.5937, "ARG_OF_PERICENTER": 167.4902, "MEAN_ANOMALY": 191.0311, "EPHEMERIS_TYPE": 0, "CLASSIFICATION_TYPE": "U", "NORAD_CAT_ID": 28190, "ELEMENT_SET_NO": 999, "REV_AT_EPOCH": 15901, "BSTAR": 0, "MEAN_MOTION_DOT": -4.4e-07, "MEAN_MOTION_DDOT": 0}, "tle": {"line1": "1 28190U 04009A   25337.44159567 -.00000044  00000+0  00000+0 0  9991", "line2": "2 28190  54.9946 283.5937 0108207 167.4902 191.0311  2.00560969159012"}}, "geometry": {"type": "Point", "coordinates": [-114.45946829882452, -41.339603357424956]}}, {"type": "Feature", "properties": {"norad_id": 28474, "name": "GPS BIIR-13 (PRN 02)", "group": "gnss", "lat": 5.684905495305214, "lon": -23.27867786378886, "alt_km": 19937.275791085704, "timestamp": "2025-12-03T20:47:58.464206+00:00", "meta": {"OBJECT_NAME": "GPS BIIR-13 (PRN 02)", "OBJECT_ID": "2004-045A", "EPOCH": "2025-12-02T14:51:16.748640", "MEAN_MOTION": 2.00568864, "ECCENTRICITY": 0.01705399, "INCLINATION": 55.2456, "RA_OF_ASC_NODE": 332.8132, "ARG_OF_PERICENTER": 308.8127, "MEAN_ANOMALY": 235.5488, "EPHEMERIS_TYPE": 0, "CLASSIFICATION_TYPE": "U", "NORAD_CAT_ID": 28474, "ELEMENT_SET_NO": 999, "REV_AT_EPOCH": 15448, "BSTAR": 0, "MEAN_MOTION_DOT": -6.2e-07, "MEAN_MOTION_DDOT": 0}, "tle": {"line1": "1 28474U 04045A   25336.61894385 -.00000062  00000+0  00000+0 0  9998", "line2": "2 28474  55.2456 332.8132 0170539 308.8127 235.5488  2.00568864154486"}}, "geometry": {"type": "Point", "coordinates": [-23.27867786378886, 5.684905495305214]}}, {"type": "Feature", "properties": {"norad_id": 28874, "name": "GPS BIIRM-1 (PRN 17)", "group": "gnss", "lat": -28.273435740410743, "lon": -101.0404851665015, "alt_km": 19883.825535449716, "timestamp": "2025-12-03T20:47:58.464220+00:00", "meta": {"OBJECT_NAME": "GPS BIIRM-1 (PRN 17)", "OBJECT_ID": "2005-038A", "EPOCH": "2025-12-02T16:12:27.400896", "MEAN_MOTION": 2.00548806, "ECCENTRICITY": 0.01328204, "INCLINATION": 55.0411, "RA_OF_ASC_NODE": 281.1063, "ARG_OF_PERICENTER": 293.4087, "MEAN_ANOMALY": 250.3584, "EPHEMERIS_TYPE": 0, "CLASSIFICATION_TYPE": "U", "NORAD_CAT_ID": 28874, "ELEMENT_SET_NO": 999, "REV_AT_EPOCH": 14789, "BSTAR": 0, "MEAN_MOTION_DOT": -4.3e-07, "MEAN_MOTION_DDOT": 0}, "tle": {"line1": "1 28874U 05038A   25336.67531714 -.00000043  00000+0  00000+0 0  9994", "line2": "2 28874  55.0411 281.1063 0132820 293.4087 250.3584  2.00548806147896"}}, "geometry": {"type": "Point", "coordinates": [-101.0404851665015, -28.273435740410743]}}, {"type": "Feature", "properties": {"norad_id": 28899, "name": "INMARSAT 4-F2 (SOUTHPAN/PRN 122)", "group": "gnss", "lat": 3.9684685467789413, "lon": 168.48068588932776, "alt_km": 35784.4188488592, "timestamp": "2025-12-03T20:47:58.464233+00:00", "meta": {"OBJECT_NAME": "INMARSAT 4-F2 (SOUTHPAN/PRN 122)", "OBJECT_ID": "2005-044A", "EPOCH": "2025-12-03T11:00:51.475104", "MEAN_MOTION": 1.00270905, "ECCENTRICITY": 0.0003468, "INCLINATION": 4.8398, "RA_OF_ASC_NODE": 43.6602, "ARG_OF_PERICENTER": 209.1571, "MEAN_ANOMALY": 128.4433, "EPHEMERIS_TYPE": 0, "CLASSIFICATION_TYPE": "U", "NORAD_CAT_ID": 28899, "ELEMENT_SET_NO": 999, "REV_AT_EPOCH": 7355, "BSTAR": 0, "MEAN_MOTION_DOT": -2.46e-06, "MEAN_MOTION_DDOT": 0}, "tle": {"line1": "1 28899U 05044A   25337.45892911 -.00000246  00000+0  00000+0 0  9999", "line2": "2 28899   4.8398  43.6602 0003468 209.1571 128.4433  1.00270905 73556"}}, "geometry": {"type": "Point", "coordinates": [168.48068588932776, 3.9684685467789413]}}, {"type": "Feature", "properties": {"norad_id": 29486, "name": "GPS BIIRM-2 (PRN 31)", "group": "gnss", "lat": -37.19782274210854, "lon": 11.649622095145233, "alt_km": 20472.090501909526, "timestamp": "2025-12-03T20:47:58.464246+00:00", "meta": {"OBJECT_NAME": "GPS BIIRM-2 (PRN 31)", "OBJECT_ID": "2006-042A", "EPOCH": "2025-12-02T13:41:33.603648", "MEAN_MOTION": 2.00554444, "ECCENTRICITY": 0.01073635, "INCLINATION": 54.6926, "RA_OF_ASC_NODE": 159.1445, "ARG_OF_PERICENTER": 51.7169, "MEAN_ANOMALY": 320.193, "EPHEMERIS_TYPE": 0, "CLASSIFICATION_TYPE": "U", "NORAD_CAT_ID": 29486, "ELEMENT_SET_NO": 999, "REV_AT_EPOCH": 14045, "BSTAR": 0, "MEAN_MOTION_DOT": 1.17e-06, "MEAN_MOTION_DDOT": 0}, "tle": {"line1": "1 29486U 06042A   25336.57052782  .00000117  00000+0  00000+0 0  9993", "line2": "2 29486  54.6926 159.1445 0107363  51.7169 320.1930  2.00554444140451"}}, "geometry": {"type": "Point", "coordinates": [11.649622095145233, -37.19782274210854]}}, {"type": "Feature", "properties": {"norad_id": 29601, "name": "GPS BIIRM-3 (PRN 12)", "group": "gnss", "lat": -52.4828272185353, "lon": 155.91054378689367, "alt_km": 20408.80315375111, "timestamp": "2025-12-03T20:47:58.464272+00:00", "meta": {"OBJECT_NAME": "GPS BIIRM-3 (PRN 12)", "OBJECT_ID": "2006-052A", "EPOCH": "2025-12-01T23:28:25.341312", "MEAN_MOTION": 2.0057269, "ECCENTRICITY": 0.0087496, "INCLINATION": 54.9731, "RA_OF_ASC_NODE": 221.8254, "ARG_OF_PERICENTER": 87.3285, "MEAN_ANOMALY": 273.7543, "EPHEMERIS_TYPE": 0, "CLASSIFICATION_TYPE": "U", "NORAD_CAT_ID": 29601, "ELEMENT_SET_NO": 999, "REV_AT_EPOCH": 13945, "BSTAR": 0, "MEAN_MOTION_DOT": 5.5e-07, "MEAN_MOTION_DDOT": 0}, "tle": {"line1": "1 29601U 06052A   25335.97807108  .00000055  00000+0  00000+0 0  9997", "line2": "2 29601  54.9731 221.8254 0087496  87.3285 273.7543  2.00572690139454"}}, "geometry": {"type": "Point", "coordinates": [155.91054378689367, -52.4828272185353]}}]}